NORAD_CAT_ID,OBJECT_NAME,OBJECT_TYPE,EPOCH,MEAN_MOTION,ECCENTRICITY,INCLINATION,RA_OF_ASC_NODE,ARG_OF_PERICENTER,MEAN_ANOMALY,BSTAR,MEAN_MOTION_DOT,MEAN_MOTION_DDOT,TLE_LINE0,TLE_LINE1,TLE_LINE2,SEMIMAJOR_AXIS,PERIOD,APOGEE,PERIGEE,DECAYED
52101.0,STARLINK-3703,PAYLOAD,2022-06-14 22:00:00,15.08842617,0.0001602,53.2185,91.3214,70.9361,356.607,-0.0011815,-0.00019044,0.0,0 STARLINK-3703,1 52101U 22029P   22165.91667824 -.00019044  00000-0 -11815-2 0  9991,2 52101  53.2185  91.3214 0001602  70.9361 356.6070 15.08842617  1303,6917.871999999999,95.437,540.846,538.629,0.0
52101.0,STARLINK-3703,PAYLOAD,2022-06-15 14:00:01,15.08816773,0.0001473,53.2181,88.3284,70.7313,20.0001,0.00083175,0.00012966,0.0,0 STARLINK-3703,1 52101U 22029P   22166.58334491  .00012966  00000-0  83175-3 0  9999,2 52101  53.2181  88.3284 0001473  70.7313  20.0001 15.08816773  1303,6917.951,95.439,540.835,538.797,0.0
52101.0,STARLINK-3703,PAYLOAD,2022-06-15 22:00:00,15.08848209,0.0001541,53.2182,86.8329,70.2665,32.0355,-0.00098818,-0.00015984,0.0,0 STARLINK-3703,1 52101U 22029P   22166.91667824 -.00015984  00000-0 -98818-3 0  9990,2 52101  53.2182  86.8329 0001541  70.2665  32.0355 15.08848209 14913,6917.855,95.437,540.786,538.654,0.0
52101.0,STARLINK-3703,PAYLOAD,2022-06-16 02:00:01,15.08834354,0.0001613,53.218,86.0856,65.0059,223.0997,0.00095842,0.00014996,0.0,0 STARLINK-3703,1 52101U 22029P   22167.08334491  .00014996  00000-0  95842-3 0  9994,2 52101  53.2180  86.0856 0001613  65.0059 223.0997 15.08834354  1306,6917.898,95.438,540.879,538.6469999999998,0.0
52101.0,STARLINK-3703,PAYLOAD,2022-06-19 14:00:01,15.08833335,0.0001373,53.2186,70.3721,68.34,161.4418,0.00044723,6.836e-05,0.0,0 STARLINK-3703,1 52101U 22029P   22170.58334491  .00006836  00000-0  44723-3 0  9999,2 52101  53.2186  70.3721 0001373  68.3400 161.4418 15.08833335  1309,6917.901,95.438,540.716,538.816,0.0
52101.0,STARLINK-3703,PAYLOAD,2022-06-19 20:56:06,15.08831697,0.0001579,53.2189,69.0765,82.4661,277.7025,0.0,-2.88e-06,0.0,0 STARLINK-3703,1 52101U 22029P   22170.87229432 -.00000288  00000-0  00000+0 0  9991,2 52101  53.2189  69.0765 0001579  82.4661 277.7025 15.08831697 15511,6917.906,95.438,540.863,538.678,0.0
52101.0,STARLINK-3703,PAYLOAD,2022-06-19 22:00:00,15.0884147,0.0001409999999999,53.2188,68.877,64.3131,177.0637,-0.00071186,-0.000116,0.0,0 STARLINK-3703,1 52101U 22029P   22170.91667824 -.00011600  00000-0 -71186-3 0  9995,2 52101  53.2188  68.8770 0001410  64.3131 177.0637 15.08841470  1301,6917.876,95.437,540.716,538.765,0.0
52101.0,STARLINK-3703,PAYLOAD,2022-06-20 14:00:01,15.08833305,0.0001382,53.2187,65.8829,70.2509,194.3199,0.00044639,6.822e-05,0.0,0 STARLINK-3703,1 52101U 22029P   22171.58334491  .00006822  00000-0  44639-3 0  9991,2 52101  53.2187  65.8829 0001382  70.2509 194.3199 15.08833305  1308,6917.901,95.438,540.722,538.81,0.0
52101.0,STARLINK-3703,PAYLOAD,2022-06-20 22:00:00,15.08839062,0.0001531999999999,53.2188,64.388,67.4992,208.6691,-0.00074498,-0.00012124,0.0,0 STARLINK-3703,1 52101U 22029P   22171.91667824 -.00012124  00000-0 -74498-3 0  9997,2 52101  53.2188  64.3880 0001532  67.4992 208.6691 15.08839062 15667,6917.8830000000025,95.438,540.808,538.688,0.0
52101.0,STARLINK-3703,PAYLOAD,2022-06-21 14:00:01,15.08836487,0.0001492,53.2185,61.3939,74.5741,224.7888,0.0013979,0.00022027,0.0,0 STARLINK-3703,1 52101U 22029P   22172.58334491  .00022027  00000-0  13979-2 0  9999,2 52101  53.2185  61.3939 0001492  74.5741 224.7888 15.08836487 15768,6917.891,95.438,540.788,538.724,0.0
52101.0,STARLINK-3703,PAYLOAD,2022-06-21 22:00:00,15.08839289,0.0001633,53.2186,59.8991,70.4656,240.5015,-0.00092647,-0.00015002,0.0,0 STARLINK-3703,1 52101U 22029P   22172.91667824 -.00015002  00000-0 -92647-3 0  9992,2 52101  53.2186  59.8991 0001633  70.4656 240.5015 15.08839289  1302,6917.8830000000025,95.438,540.877,538.618,0.0
52101.0,STARLINK-3703,PAYLOAD,2022-06-22 06:00:00,15.08849144,0.0001578,53.2181,58.4028,66.9743,255.5753,-0.0030946,-0.00049215,0.0,0 STARLINK-3703,1 52101U 22029P   22173.25001157 -.00049215  00000-0 -30946-2 0  9997,2 52101  53.2181  58.4028 0001578  66.9743 255.5753 15.08849144 15860,6917.852,95.437,540.809,538.626,0.0
52101.0,STARLINK-3703,PAYLOAD,2022-06-22 14:00:01,15.08761421,0.000166,53.2175,56.9084,74.9254,259.2236,0.0050423,0.00080706,0.0,0 STARLINK-3703,1 52101U 22029P   22173.58334491  .00080706  00000-0  50423-2 0  9993,2 52101  53.2175  56.9084 0001660  74.9254 259.2236 15.08761421  1308,6918.121,95.443,541.134,538.837,0.0
52101.0,STARLINK-3703,PAYLOAD,2022-06-22 22:00:00,15.08833561,0.0001576999999999,53.2184,55.4105,70.3811,275.3228,-0.00063486,-0.00010376,0.0,0 STARLINK-3703,1 52101U 22029P   22173.91667824 -.00010376  00000-0 -63486-3 0  9991,2 52101  53.2184  55.4105 0001577  70.3811 275.3228 15.08833561 15964,6917.9,95.438,540.856,538.674,0.0
52101.0,STARLINK-3703,PAYLOAD,2022-06-23 14:00:01,15.08833624,0.0001561999999999,53.2182,52.4163,77.0287,291.8541,0.0012127,0.00019061,0.0,0 STARLINK-3703,1 52101U 22029P   22174.58334491  .00019061  00000-0  12127-2 0  9999,2 52101  53.2182  52.4163 0001562  77.0287 291.8541 15.08833624 16072,6917.9,95.438,540.845,538.684,0.0
52101.0,STARLINK-3703,PAYLOAD,2022-06-23 22:00:00,15.08834695,0.0001754,53.2184,50.9217,71.8811,308.596,-0.0012238,-0.00019709,0.0,0 STARLINK-3703,1 52101U 22029P   22174.91667824 -.00019709  00000-0 -12238-2 0  9999,2 52101  53.2184  50.9217 0001754  71.8811 308.5960 15.08834695  1305,6917.897,95.438,540.975,538.548,0.0
52101.0,STARLINK-3703,PAYLOAD,2022-06-24 06:00:02,15.08843707,0.0001716,53.2183,49.4251,69.3145,322.8003,-0.0011798,-0.00019018,0.0,0 STARLINK-3703,1 52101U 22029P   22175.25002315 -.00019018  00000-0 -11798-2 0  9998,2 52101  53.2183  49.4251 0001716  69.3145 322.8003 15.08843707 16177,6917.869000000002,95.437,540.9209999999998,538.547,0.0
52101.0,STARLINK-3703,PAYLOAD,2022-06-24 14:00:01,15.08819672,0.0001694,53.2185,47.9275,77.5589,326.0892,0.0030183,0.00048049,0.0,0 STARLINK-3703,1 52101U 22029P   22175.58334491  .00048049  00000-0  30183-2 0  9990,2 52101  53.2185  47.9275 0001694  77.5589 326.0892 15.08819672  1301,6917.943,95.439,540.979,538.636,0.0
52101.0,STARLINK-3703,PAYLOAD,2022-06-24 22:00:01,15.08857311,0.0001764999999999,53.2186,46.433,70.7435,344.5553,-0.0035442,-0.00056281,0.0,0 STARLINK-3703,1 52101U 22029P   22175.91668981 -.00056281  00000-0 -35442-2 0  9993,2 52101  53.2186  46.4330 0001765  70.7435 344.5553 15.08857311 16275,6917.8269999999975,95.436,540.913,538.471,0.0
52101.0,STARLINK-3703,PAYLOAD,2022-06-25 14:00:01,15.08840448,0.0001728,53.2175,43.4425,70.5233,7.8915,-0.00036236,-6.051e-05,0.0,0 STARLINK-3703,1 52101U 22029P   22176.58334491 -.00006051  00000-0 -36236-3 0  9996,2 52101  53.2175  43.4425 0001728  70.5233   7.8915 15.08840448 16373,6917.879,95.438,540.939,538.549,0.0
52101.0,STARLINK-3703,PAYLOAD,2022-06-25 22:00:00,15.08845549,0.0001754,53.2191,41.9443,70.0799,19.9215,-0.00024883,-4.247e-05,0.0,0 STARLINK-3703,1 52101U 22029P   22176.91667824 -.00004247  00000-0 -24883-3 0  9992,2 52101  53.2191  41.9443 0001754  70.0799  19.9215 15.08845549  1306,6917.863,95.437,540.942,538.515,0.0
52101.0,STARLINK-3703,PAYLOAD,2022-06-26 14:00:01,15.08853449,0.0001595,53.2194,38.9498,76.9848,36.3028,0.00025696,3.805e-05,0.0,0 STARLINK-3703,1 52101U 22029P   22177.58335648  .00003805  00000-0  25696-3 0  9992,2 52101  53.2194  38.9498 0001595  76.9848  36.3028 15.08853449 16521,6917.839,95.437,540.808,538.601,0.0
52101.0,STARLINK-3703,PAYLOAD,2022-06-26 22:00:00,15.08845851,0.0001626999999999,53.2194,37.4554,68.8279,56.005,2.317300000000001e-05,8.1e-07,0.0,0 STARLINK-3703,1 52101U 22029P   22177.91667824  .00000081  00000-0  23173-4 0  9995,2 52101  53.2194  37.4554 0001627  68.8279  56.0050 15.08845851  1304,6917.863,95.437,540.8530000000002,538.602,0.0
52101.0,STARLINK-3703,PAYLOAD,2022-06-27 06:00:00,15.08871655,0.0001473,53.2192,35.9584,68.6039,67.8257,-0.0048474,-0.0007667999999999,0.0,0 STARLINK-3703,1 52101U 22029P   22178.25001157 -.00076680  00000-0 -48474-2 0  9993,2 52101  53.2192  35.9584 0001473  68.6039  67.8257 15.08871655 16620,6917.784000000002,95.436,540.668,538.63,0.0
52101.0,STARLINK-3703,PAYLOAD,2022-06-27 14:00:01,15.08810566,0.0001346,53.2196,34.461,76.2152,71.8145,0.00060973,9.421e-05,0.0,0 STARLINK-3703,1 52101U 22029P   22178.58334491  .00009421  00000-0  60973-3 0  9995,2 52101  53.2196  34.4610 0001346  76.2152  71.8145 15.08810566  1302,6917.97,95.439,540.7669999999998,538.904,0.0
52101.0,STARLINK-3703,PAYLOAD,2022-06-27 22:00:00,15.08807697,0.0001406999999999,53.2193,32.9666,66.4721,93.1227,0.0003611,5.459e-05,0.0,0 STARLINK-3703,1 52101U 22029P   22178.91667824  .00005459  00000-0  36110-3 0  9994,2 52101  53.2193  32.9666 0001407  66.4721  93.1227 15.08807697 16725,6917.979,95.44,540.817,538.871,0.0
52101.0,STARLINK-3703,PAYLOAD,2022-06-28 14:00:01,15.08817106,0.000131,53.2193,29.9725,78.1507,104.5635,0.0012017999999999,0.00018878,0.0,0 STARLINK-3703,1 52101U 22029P   22179.58334491  .00018878  00000-0  12018-2 0  9998,2 52101  53.2193  29.9725 0001310  78.1507 104.5635 15.08817106  1306,6917.95,95.439,540.722,538.909,0.0
52101.0,STARLINK-3703,PAYLOAD,2022-06-28 22:00:00,15.08816237,0.000139,53.219,28.478,67.9681,126.3231,0.0006277,9.71e-05,0.0,0 STARLINK-3703,1 52101U 22029P   22179.91667824  .00009710  00000-0  62770-3 0  9990,2 52101  53.2190  28.4780 0001390  67.9681 126.3231 15.08816237  1303,6917.953,95.439,540.78,538.856,0.0
52101.0,STARLINK-3703,PAYLOAD,2022-06-29 14:00:01,15.08944705,0.0001291999999999,53.2179,25.4852,76.4332,140.9801,-0.0049273999999999,-0.0007808,0.0,0 STARLINK-3703,1 52101U 22029P   22180.58334491 -.00078080  00000-0 -49274-2 0  9997,2 52101  53.2179  25.4852 0001292  76.4332 140.9801 15.08944705 16972,6917.56,95.431,540.319,538.5319999999998,0.0
